EOSSAT-1                
1 55053U 23001AW  26068.73619225  .00007695  00000+0  24844-3 0  9992
2 55053  97.3357 130.2294 0011263 110.3168 249.9285 15.32339828176689
STARLINK-30518          
1 58029U 23156B   26068.33843173  .00007196  00000+0  25487-3 0  9996
2 58029  53.1604  79.9129 0001544 112.8694 247.2470 15.30196225136265
